KUIPER-00167            
1 65780U 25217U   26008.33334491  .00054154  00000+0  70943-2 0  9992
2 65780  51.8967 312.4850 0000579  86.8078 223.5453 14.79821180  3991
KUIPER-00168            
1 65781U 25217V   26008.33334491 -.01025136  00000+0 -67995-1 0  9996
2 65781  51.8863 297.1917 0000938 112.4930  35.9446 15.09532670  3435
KUIPER-00169            
1 65782U 25217W   26008.33334491 -.01570070  00000+0 -16126+0 0  9997
2 65782  51.8937 300.5318 0003992  98.3203 216.0765 14.93337763  4255
KUIPER-00170            
1 65783U 25217X   26008.33334491  .00005736  00000+0  72367-3 0  9990
2 65783  51.8990 305.0740 0002770 110.0643 115.8477 14.83145580  5224
KUIPER-00171            
1 65784U 25217Y   26008.17204046  .00230009  00000+0  14257-2 0  9991
2 65784  51.8522 281.4473 0010983 124.6406 235.5633 15.75744505 16319
KUIPER-00172            
1 65785U 25217Z   26008.18480470  .00019609  00000+0  89813-3 0  9992
2 65785  51.8750 298.5914 0005377 126.1315 234.0163 15.20474872 16082
KUIPER-00173            
1 65786U 25217AA  26008.33334491 -.00097754  00000+0 -95726-2 0  9999
2 65786  51.8932 300.5939 0002219 203.9157 288.0054 14.92345415  4247
KUIPER-00174            
1 65787U 25217AB  26008.33334491 -.01423938  00000+0 -96904-1 0  9996
2 65787  51.8842 297.3614 0001035 176.9976 151.0786 15.09096459  5820
